{"type":"Feature","properties":{"source":"campania-dtm","attribution":"outline \u00a9 OpenStreetMap contributors, ODbL 1.0, by Nominatim"},"geometry":{"type":"MultiPolygon","coordinates":[[[[13.7623799,41.2231091],[13.8358627,41.1626342],[13.894813,41.0894989],[13.921916,41.024178],[13.9726594,40.9747171],[13.973862,40.9762611],[13.9789814,40.9797381],[13.9803952,40.9797271],[13.983815,40.9750029],[13.9831683,40.9745509],[13.9798557,40.979365],[13.9751773,40.9763755],[14.0073914,40.9417765],[14.0450733,40.8622119],[14.0474951,40.8240076],[14.0388719,40.7911105],[14.0808298,40.7865502],[14.0894937,40.7777127],[14.0892524,40.7880196],[14.0779793,40.7903731],[14.0876645,40.7942923],[14.0825656,40.81207],[14.0716133,40.8185543],[14.0868097,40.8302032],[14.1060989,40.8315336],[14.1193383,40.8252523],[14.1136141,40.8211015],[14.1560861,40.8180288],[14.1612998,40.8158363],[14.1658523,40.8045602],[14.1725121,40.8058762],[14.1702846,40.7975279],[14.1877858,40.7922148],[14.2077292,40.801025],[14.207587,40.8126347],[14.2254958,40.8304635],[14.2762126,40.8301271],[14.2520933,40.8361977],[14.2740559,40.8446165],[14.3265112,40.8179284],[14.3944861,40.7600005],[14.4147389,40.7516175],[14.4373831,40.7546888],[14.449868,40.7441219],[14.4443775,40.7488326],[14.4466575,40.7548041],[14.4613824,40.7422306],[14.4798383,40.7104853],[14.4792609,40.6958865],[14.4469133,40.6870104],[14.430501,40.6661824],[14.4034981,40.6561556],[14.4087339,40.6504204],[14.4013409,40.6382495],[14.3704725,40.627633],[14.3514437,40.6345177],[14.3395078,40.6280886],[14.3421122,40.618701],[14.3203823,40.5876918],[14.3272442,40.5864655],[14.3246265,40.5690447],[14.3367586,40.5770746],[14.3375777,40.5699924],[14.3457495,40.5721866],[14.34725,40.5795478],[14.3808849,40.5930659],[14.406105,40.5986267],[14.4190143,40.6103706],[14.4863751,40.6273786],[14.5280798,40.6068048],[14.5429198,40.614494],[14.5720274,40.6112669],[14.6266074,40.6488771],[14.6919399,40.6332374],[14.7186809,40.6664773],[14.7467884,40.6665319],[14.7384234,40.671606],[14.7475395,40.6776966],[14.7550694,40.6720301],[14.7420592,40.6626346],[14.7499076,40.6650249],[14.7554825,40.6718863],[14.7520937,40.6750205],[14.7580427,40.6776431],[14.8234723,40.6405425],[14.9008621,40.5559887],[14.9993755,40.3889048],[14.9958979,40.3546611],[14.9449015,40.3354935],[14.9381977,40.3185463],[14.9463908,40.306427],[14.9444284,40.2778396],[14.9059807,40.2546523],[14.9086752,40.243672],[14.9353137,40.2285389],[14.9513614,40.2333193],[14.9923215,40.2182281],[15.015086,40.1983549],[15.0253837,40.1765019],[15.0395491,40.1701164],[15.066275,40.1639474],[15.1129556,40.1770486],[15.1331459,40.1709584],[15.1791486,40.1247006],[15.205689,40.1230936],[15.2236258,40.1028196],[15.271897,40.0740505],[15.2855175,40.0347123],[15.2678067,40.031461],[15.2712106,40.0223296],[15.3153912,40.0316736],[15.3535747,39.9997601],[15.4132559,39.9970561],[15.4192311,39.9905158],[15.4602521,40.0337232],[15.4845628,40.0383163],[15.50331,40.0639424],[15.5308628,40.073783],[15.572253,40.0784999],[15.6173684,40.0686651],[15.6250999,40.0741744],[15.6322959,40.0688717],[15.6247606,40.0648053],[15.6323147,40.0505967],[15.6420391,40.0430891],[15.6574148,40.0472453],[15.6761642,40.0548991],[15.6758963,40.063577],[15.6519128,40.0791366],[15.6777562,40.0844104],[15.7058299,40.1177323],[15.7092175,40.139868],[15.7005081,40.1582784],[15.7164909,40.1695869],[15.7119623,40.177923],[15.7297529,40.1863255],[15.7300017,40.1997016],[15.7507012,40.2006685],[15.7969823,40.2236664],[15.7873545,40.2366346],[15.8053724,40.2514096],[15.7996173,40.2677856],[15.8057662,40.274527],[15.7922863,40.2897797],[15.7677559,40.290756],[15.7649957,40.2983514],[15.7437512,40.3008438],[15.7268796,40.3154464],[15.7308374,40.322167],[15.704748,40.342241],[15.7026673,40.3618681],[15.7101223,40.3772995],[15.6772322,40.3966612],[15.662733,40.3924933],[15.6479787,40.4140072],[15.586616,40.4433519],[15.5917924,40.4460255],[15.5772033,40.4593967],[15.5787319,40.468894],[15.5381818,40.488628],[15.535225,40.4996407],[15.550474,40.509245],[15.5353071,40.5222614],[15.5453042,40.5316561],[15.5359833,40.5353764],[15.5265771,40.5573346],[15.539341,40.5680622],[15.5198889,40.5704887],[15.5101282,40.5857474],[15.4740182,40.5926553],[15.4494721,40.6091001],[15.4674966,40.638733],[15.4899359,40.6454839],[15.5038735,40.6634586],[15.4289422,40.6925924],[15.4108831,40.7125599],[15.3814762,40.7241508],[15.3790577,40.7509305],[15.3913213,40.7676288],[15.3804019,40.780584],[15.3882857,40.7953926],[15.3666432,40.7983083],[15.3805019,40.8109502],[15.3664572,40.8121387],[15.3349712,40.83488],[15.3776832,40.8364478],[15.3734789,40.8611622],[15.3790301,40.8676043],[15.355245,40.8708938],[15.3541736,40.8826538],[15.3752323,40.8858385],[15.3881117,40.8756185],[15.4299255,40.8796305],[15.460816,40.8671507],[15.4737791,40.8746041],[15.4681761,40.8902149],[15.5272463,40.9078366],[15.5422857,40.9463962],[15.566861,40.9695269],[15.5722979,40.9975161],[15.5595517,41.0169743],[15.5631539,41.0310243],[15.5428713,41.0558542],[15.4783512,41.0786617],[15.446097,41.0780168],[15.4012787,41.105979],[15.3670591,41.0848061],[15.3143572,41.1038857],[15.2925342,41.0919699],[15.2625311,41.1067228],[15.263349,41.1147879],[15.2364044,41.1408366],[15.2107885,41.1486706],[15.2093455,41.1676866],[15.2221675,41.1806957],[15.2624151,41.1976262],[15.2448076,41.2249421],[15.246175,41.2361111],[15.2795358,41.2405208],[15.2756585,41.2495358],[15.2490037,41.2709912],[15.2204396,41.2651875],[15.2157449,41.2759401],[15.1997443,41.2794481],[15.2006956,41.2863543],[15.1486628,41.2804161],[15.1267706,41.3029519],[15.1306275,41.317494],[15.0721912,41.332464],[15.058471,41.3721354],[15.0784415,41.3880021],[15.0983163,41.3905679],[15.0866409,41.4072257],[15.0917173,41.4179239],[15.1032941,41.42094],[15.1008316,41.4296672],[15.0467916,41.4433415],[15.0437522,41.4560778],[15.032443,41.4526849],[15.02389,41.4769478],[15.0076218,41.4863874],[14.9468945,41.4560841],[14.8844204,41.4447798],[14.8565705,41.4247004],[14.7849393,41.4520934],[14.7538744,41.4100022],[14.7165736,41.4007639],[14.6985071,41.4112276],[14.6636397,41.4069506],[14.66288,41.3941197],[14.6434069,41.3940218],[14.6029484,41.3640631],[14.5671738,41.392072],[14.5514525,41.3791994],[14.5066369,41.3818307],[14.4885414,41.3905026],[14.4771648,41.4189835],[14.4218365,41.430191],[14.4172646,41.4407545],[14.4003905,41.4370273],[14.3245334,41.455026],[14.2832134,41.472178],[14.2921429,41.4762756],[14.2791655,41.4861419],[14.2547959,41.4838405],[14.2407774,41.4977379],[14.1908075,41.4957852],[14.1753824,41.5026777],[14.1661093,41.4783312],[14.151111,41.482741],[14.126423,41.5080786],[14.1167521,41.5025354],[14.1139336,41.4870529],[14.081651,41.4651861],[14.0863658,41.4593314],[14.0783108,41.447593],[14.1057966,41.4198957],[14.1022171,41.4031006],[14.112448,41.3998745],[14.1137793,41.3888986],[14.094736,41.3905703],[14.0840839,41.4001677],[14.0430961,41.3922511],[14.0274581,41.4176803],[14.0015862,41.4319237],[14.007921,41.4528675],[13.975993,41.4634984],[13.9612349,41.4639439],[13.9025724,41.4227269],[13.8751399,41.4264164],[13.8617988,41.4180869],[13.8692535,41.4049681],[13.8885982,41.4008054],[13.8755797,41.3961012],[13.8863184,41.3844443],[13.8688018,41.3627249],[13.8776738,41.3606422],[13.8708117,41.357089],[13.8736799,41.3356246],[13.8948148,41.3116365],[13.8897396,41.2974833],[13.8289791,41.2815386],[13.8266663,41.2659696],[13.8401219,41.2625402],[13.8310738,41.2624845],[13.8335252,41.2522028],[13.8168652,41.2436838],[13.8131146,41.2489497],[13.7753528,41.243809],[13.7623799,41.2231091]]],[[[13.8508534,40.7111817],[13.8737014,40.6968315],[13.8910332,40.6990833],[13.8938569,40.6919586],[13.9001576,40.7011447],[13.9232924,40.6971694],[13.9400829,40.7066153],[13.9542035,40.7006636],[13.9653136,40.7169076],[13.9591605,40.7237759],[13.9596404,40.7308365],[13.9624968,40.7319297],[13.9528028,40.7427672],[13.9384614,40.7440918],[13.9381016,40.7453566],[13.9410585,40.7459583],[13.9425647,40.7483468],[13.9072759,40.7488902],[13.9113158,40.7526408],[13.9048196,40.7495694],[13.8903037,40.7523917],[13.8714345,40.7617628],[13.861777,40.7573606],[13.8683747,40.752578],[13.8655331,40.7434368],[13.8621181,40.7400251],[13.8588906,40.7409757],[13.8619938,40.739971],[13.8617573,40.7390492],[13.8601317,40.7382558],[13.8579743,40.7419228],[13.8559282,40.73822],[13.8550513,40.7373408],[13.8540322,40.7370718],[13.8607512,40.7236134],[13.8609306,40.7162504],[13.8508534,40.7111817]]],[[[13.8521168,40.7353586],[13.8521215,40.7353247],[13.8521466,40.7353394],[13.8521168,40.7353586]]],[[[13.8522241,40.7353432],[13.8522081,40.7351951],[13.8522878,40.735263],[13.8522241,40.7353432]]],[[[13.8522081,40.7355187],[13.8522131,40.7355023],[13.8522273,40.7355131],[13.8522081,40.7355187]]],[[[13.8522715,40.7408777],[13.8523022,40.740786],[13.852323,40.7408715],[13.8522715,40.7408777]]],[[[13.8523666,40.7354169],[13.85237,40.7353786],[13.8524184,40.7353856],[13.8523666,40.7354169]]],[[[13.8525744,40.7353757],[13.8524936,40.735391],[13.8525491,40.7352664],[13.8525744,40.7353757]]],[[[13.8524872,40.7355102],[13.8525015,40.7354876],[13.8525185,40.7354955],[13.8524872,40.7355102]]],[[[13.8525104,40.735262],[13.8525003,40.7352492],[13.8525298,40.7352364],[13.8525104,40.735262]]],[[[13.8525826,40.7355932],[13.8525506,40.7355548],[13.8526021,40.7355656],[13.8525826,40.7355932]]],[[[13.8529406,40.7153163],[13.8528282,40.7152278],[13.8529866,40.7152553],[13.8529406,40.7153163]]],[[[13.8532115,40.7418622],[13.8531865,40.7418065],[13.8532228,40.7418578],[13.8532115,40.7418622]]],[[[13.8533032,40.707516],[13.8536146,40.7071205],[13.8537906,40.7074234],[13.8533032,40.707516]]],[[[13.8545381,40.7380981],[13.8545414,40.7380631],[13.8545627,40.7380811],[13.8545381,40.7380981]]],[[[13.8546812,40.7380302],[13.8546744,40.7379752],[13.8547063,40.7379963],[13.8546812,40.7380302]]],[[[13.8548581,40.7379336],[13.8548543,40.737879],[13.8548993,40.7379161],[13.8548581,40.7379336]]],[[[13.8549763,40.7376585],[13.8549846,40.7375958],[13.8549857,40.7376591],[13.8549763,40.7376585]]],[[[13.8550044,40.7374722],[13.8549866,40.7374311],[13.8550181,40.7374603],[13.8550044,40.7374722]]],[[[13.8550543,40.7375665],[13.8550515,40.7375523],[13.8550732,40.7375552],[13.8550543,40.7375665]]],[[[13.8550914,40.7379551],[13.8550745,40.7379154],[13.8551007,40.7379241],[13.8550914,40.7379551]]],[[[13.855327,40.7311019],[13.8552521,40.7310188],[13.8553695,40.7309662],[13.855327,40.7311019]]],[[[13.8566302,40.7297195],[13.8566044,40.7296809],[13.8566579,40.729676],[13.8566302,40.7297195]]],[[[13.8566459,40.7295877],[13.8566703,40.7294972],[13.8567367,40.7295365],[13.8566459,40.7295877]]],[[[13.856887,40.7297578],[13.8568939,40.7297112],[13.8569065,40.729738],[13.856887,40.7297578]]],[[[13.8570019,40.7297259],[13.857013,40.7296642],[13.8570525,40.7297141],[13.8570019,40.7297259]]],[[[13.857023,40.7298209],[13.8570186,40.7297839],[13.8570531,40.7297958],[13.857023,40.7298209]]],[[[13.8570712,40.7296828],[13.8570778,40.729642],[13.8571096,40.7296621],[13.8570712,40.7296828]]],[[[13.8570975,40.7297959],[13.8570734,40.729769],[13.8571018,40.7297725],[13.8570975,40.7297959]]],[[[13.8571312,40.7295047],[13.857137,40.7294922],[13.8571427,40.7294946],[13.8571312,40.7295047]]],[[[13.8571593,40.7295415],[13.8571582,40.7295212],[13.8571748,40.7295328],[13.8571593,40.7295415]]],[[[13.8571941,40.7295577],[13.8571808,40.7295558],[13.8571929,40.7295406],[13.8571941,40.7295577]]],[[[13.8572462,40.7295109],[13.8572619,40.7294932],[13.8572739,40.7295082],[13.8572462,40.7295109]]],[[[13.8573152,40.7294089],[13.8573106,40.7293754],[13.8573298,40.7293868],[13.8573152,40.7294089]]],[[[13.8573786,40.7294849],[13.8573812,40.7294085],[13.8574113,40.729426],[13.8573786,40.7294849]]],[[[13.8575397,40.7294764],[13.8574951,40.7294273],[13.8575461,40.7294389],[13.8575397,40.7294764]]],[[[13.8577522,40.7235303],[13.8577029,40.7234643],[13.8577684,40.7234789],[13.8577522,40.7235303]]],[[[13.8579498,40.7163739],[13.8580355,40.7162521],[13.8580358,40.7163269],[13.8579498,40.7163739]]],[[[13.8580741,40.721556],[13.8580916,40.7213755],[13.8581629,40.7215003],[13.8580741,40.721556]]],[[[13.8582952,40.7212901],[13.8582586,40.7212184],[13.8583114,40.7212277],[13.8582952,40.7212901]]],[[[13.8585869,40.7211815],[13.858597,40.7211144],[13.8586519,40.7211568],[13.8585869,40.7211815]]],[[[13.8587871,40.7253719],[13.858773,40.7253002],[13.8588234,40.725315],[13.8587871,40.7253719]]],[[[13.859134,40.7219861],[13.8591361,40.7218644],[13.8592133,40.7218759],[13.859134,40.7219861]]],[[[13.8599106,40.7220596],[13.8598282,40.7219872],[13.8599322,40.7220047],[13.8599106,40.7220596]]],[[[13.8607174,40.7204809],[13.8607072,40.7204254],[13.8607956,40.7204612],[13.8607174,40.7204809]]],[[[13.8607879,40.7386913],[13.8607868,40.7386615],[13.8608016,40.7386788],[13.8607879,40.7386913]]],[[[13.8615095,40.7391947],[13.8614978,40.7391826],[13.8615151,40.7391791],[13.8615095,40.7391947]]],[[[13.8619913,40.7407846],[13.8619814,40.7407166],[13.8620196,40.7407608],[13.8619913,40.7407846]]],[[[13.8620717,40.7407538],[13.8620858,40.7406771],[13.8621082,40.7407247],[13.8620717,40.7407538]]],[[[13.8642902,40.7450638],[13.864278,40.744968],[13.8643665,40.7450566],[13.8642902,40.7450638]]],[[[13.865234,40.7444331],[13.8652432,40.7444088],[13.8652583,40.7444222],[13.865234,40.7444331]]],[[[13.8652505,40.7451448],[13.8652505,40.7451248],[13.8652576,40.7451358],[13.8652505,40.7451448]]],[[[13.8654186,40.7455812],[13.8654201,40.745552],[13.8654317,40.7455561],[13.8654186,40.7455812]]],[[[13.8654933,40.7463079],[13.8654394,40.7462483],[13.8655253,40.7462795],[13.8654933,40.7463079]]],[[[13.8654482,40.7457043],[13.8654904,40.7456562],[13.865531,40.7456897],[13.8654482,40.7457043]]],[[[13.8658118,40.7455753],[13.8658047,40.7455607],[13.8658225,40.7455549],[13.8658118,40.7455753]]],[[[13.8857297,40.7553672],[13.8865973,40.7545636],[13.8866564,40.7546012],[13.8857297,40.7553672]]],[[[13.8867972,40.7544936],[13.8874375,40.7539025],[13.8876267,40.7539054],[13.8867972,40.7544936]]],[[[13.8899309,40.7532376],[13.8901327,40.7528816],[13.8903937,40.7528589],[13.8899309,40.7532376]]],[[[13.8902459,40.7538405],[13.8901136,40.7536122],[13.8903041,40.7536303],[13.8902459,40.7538405]]],[[[13.8917143,40.7534741],[13.8910221,40.7526844],[13.8918579,40.7533533],[13.8945742,40.7528194],[13.8917143,40.7534741]]],[[[13.8968151,40.7521512],[13.8967766,40.7520969],[13.8968382,40.7521243],[13.8968151,40.7521512]]],[[[13.9178395,40.7505418],[13.9178196,40.7504914],[13.9178654,40.7505264],[13.9178395,40.7505418]]],[[[13.9178948,40.7505949],[13.917874,40.7505264],[13.9179406,40.7505584],[13.9178948,40.7505949]]],[[[13.9394882,40.7443934],[13.9394797,40.744274],[13.9395694,40.7443338],[13.9394882,40.7443934]]],[[[13.9436835,40.7468416],[13.9436707,40.7467913],[13.943699,40.7468094],[13.9436835,40.7468416]]],[[[13.96009,40.7258584],[13.9599042,40.7256787],[13.9602192,40.7257364],[13.96009,40.7258584]]],[[[13.9601968,40.7262854],[13.9600788,40.7261086],[13.9602749,40.7260943],[13.9601968,40.7262854]]],[[[13.9600508,40.7264552],[13.960184,40.7263477],[13.9602636,40.7265006],[13.9600508,40.7264552]]],[[[13.960537,40.7270853],[13.9604678,40.7269628],[13.9605492,40.7269605],[13.960537,40.7270853]]],[[[13.9604299,40.7277058],[13.960496,40.7276515],[13.9605194,40.7277153],[13.9604299,40.7277058]]],[[[13.9607554,40.7264238],[13.9606757,40.7262817],[13.9608421,40.7263219],[13.9607554,40.7264238]]],[[[13.9607638,40.7274145],[13.9606315,40.7272748],[13.9609696,40.7273206],[13.9607638,40.7274145]]],[[[13.9608264,40.726684],[13.9608724,40.7265512],[13.9609821,40.7265673],[13.9608264,40.726684]]],[[[13.9610457,40.7276271],[13.961028,40.7273722],[13.9611037,40.7275089],[13.9610457,40.7276271]]],[[[13.9611531,40.7270976],[13.9611492,40.7268465],[13.9612996,40.7269029],[13.9611531,40.7270976]]],[[[13.961203,40.7274823],[13.9611411,40.7273133],[13.9612439,40.727477],[13.961203,40.7274823]]],[[[13.9612596,40.7273809],[13.9612455,40.7273387],[13.9612777,40.727356],[13.9612596,40.7273809]]],[[[13.9612722,40.7273201],[13.9612973,40.7273006],[13.9612969,40.7273184],[13.9612722,40.7273201]]],[[[13.9663519,40.7323892],[13.964923,40.7297316],[13.9671168,40.7308499],[13.9663519,40.7323892]]],[[[13.9644026,40.7299736],[13.9644642,40.7298843],[13.9645151,40.7299669],[13.9644026,40.7299736]]],[[[13.9904183,40.7429144],[13.9976608,40.7400359],[13.9954051,40.7468355],[14.0041341,40.7449953],[14.0062788,40.7489936],[14.0173177,40.7391946],[14.012881,40.7485677],[14.0249033,40.7500773],[14.0208024,40.757236],[14.0244011,40.7598004],[14.0304154,40.7616206],[14.0316754,40.7614231],[14.0323895,40.758318],[14.037696,40.7650133],[14.0091809,40.769116],[14.0097388,40.7595988],[14.0062037,40.7531449],[14.0035688,40.74941],[13.9942292,40.7488383],[13.9904183,40.7429144]]],[[[14.0059954,40.7532862],[14.006062,40.7532182],[14.0061546,40.7532379],[14.0059954,40.7532862]]],[[[14.0062675,40.7535867],[14.0062241,40.7534792],[14.0063486,40.7535318],[14.0062675,40.7535867]]],[[[14.027325,40.7602896],[14.0271254,40.7599781],[14.0283665,40.7607262],[14.027325,40.7602896]]],[[[14.0289883,40.7606359],[14.0294886,40.7606055],[14.0309248,40.7608172],[14.0289883,40.7606359]]],[[[14.036156,40.7990418],[14.0356712,40.7984792],[14.0380406,40.7983049],[14.0373676,40.7992277],[14.036156,40.7990418]]],[[[14.0365303,40.7993682],[14.0364565,40.7992638],[14.0364811,40.7992494],[14.0365303,40.7993682]]],[[[14.0429902,40.8136824],[14.0430707,40.8134347],[14.0431673,40.8136661],[14.0429902,40.8136824]]],[[[14.0883943,40.7927165],[14.0883999,40.792028],[14.091055,40.7900005],[14.0883943,40.7927165]]],[[[14.1423882,40.8180706],[14.1423068,40.8179335],[14.1424497,40.8179536],[14.1423882,40.8180706]]],[[[14.1629657,40.800098],[14.1636486,40.7925912],[14.1703328,40.7977744],[14.1629657,40.800098]]],[[[14.1867634,40.7921543],[14.1870641,40.7912976],[14.1875344,40.7920114],[14.1867634,40.7921543]]],[[[14.1996388,40.5608242],[14.1987173,40.5358786],[14.2421112,40.5463711],[14.2533231,40.5417888],[14.2663785,40.5563973],[14.1996388,40.5608242]]],[[[14.2531582,40.5404055],[14.2529765,40.5396079],[14.2539258,40.5402033],[14.2531582,40.5404055]]],[[[14.2527119,40.5412235],[14.2527402,40.5404551],[14.2532738,40.5406586],[14.2527119,40.5412235]]],[[[14.256317,40.5438938],[14.2567068,40.5429571],[14.2569567,40.5437347],[14.256317,40.5438938]]],[[[14.3401173,40.5698457],[14.3401368,40.5696908],[14.3402347,40.5698125],[14.3401173,40.5698457]]],[[[14.3499778,40.5800285],[14.3500596,40.5797474],[14.3502313,40.579997],[14.3499778,40.5800285]]],[[[14.3686822,40.586378],[14.3688203,40.585996],[14.3689357,40.5863301],[14.3686822,40.586378]]],[[[14.3688022,40.5866346],[14.3687747,40.5865221],[14.3688304,40.5866168],[14.3688022,40.5866346]]],[[[14.3758236,40.588587],[14.3767872,40.5871922],[14.37796,40.5889322],[14.3758236,40.588587]]],[[[14.396997,40.5836795],[14.3964315,40.5830219],[14.3984957,40.5829498],[14.396997,40.5836795]]],[[[14.4307484,40.5821324],[14.429989,40.5811693],[14.4310435,40.5819923],[14.4307484,40.5821324]]],[[[14.4305884,40.5805047],[14.4295962,40.5793911],[14.4309375,40.5794715],[14.4305884,40.5805047]]],[[[14.430132,40.5822899],[14.4298554,40.5821072],[14.4303004,40.5821895],[14.430132,40.5822899]]],[[[14.4342388,40.5837062],[14.433784,40.5824848],[14.4365912,40.5807241],[14.4342388,40.5837062]]],[[[14.4636488,40.7301465],[14.4633731,40.7290868],[14.4641356,40.7295178],[14.4636488,40.7301465]]],[[[14.4631759,40.7299368],[14.463096,40.7297987],[14.4632033,40.729828],[14.4631759,40.7299368]]],[[[14.4631799,40.7291318],[14.4631427,40.7290694],[14.4631927,40.7290893],[14.4631799,40.7291318]]],[[[14.4635756,40.7290672],[14.4636134,40.728907],[14.4637196,40.7290231],[14.4635756,40.7290672]]],[[[14.4641598,40.7296592],[14.4642183,40.7295805],[14.4642161,40.7296261],[14.4641598,40.7296592]]],[[[14.9001011,40.2516096],[14.9008652,40.251216],[14.9009876,40.251933],[14.9001011,40.2516096]]],[[[15.294427,40.0239645],[15.2941832,40.0235833],[15.294589,40.0236288],[15.294427,40.0239645]]]]}}
