{"type":"Feature","properties":{"source":"emilia-romagna-dtm","attribution":"outline \u00a9 OpenStreetMap contributors, ODbL 1.0, by Nominatim"},"geometry":{"type":"MultiPolygon","coordinates":[[[[9.1979117,44.6501459],[9.2004217,44.6153336],[9.2427958,44.6196201],[9.2535291,44.6069975],[9.2423646,44.60012],[9.2796716,44.595385],[9.2876534,44.6091006],[9.3004102,44.6077774],[9.3422242,44.5777804],[9.3610507,44.5849695],[9.3810803,44.5767496],[9.389368,44.5902195],[9.4026238,44.5907857],[9.4056289,44.6008068],[9.4213062,44.5926043],[9.4230766,44.5746122],[9.4407042,44.5667175],[9.4518342,44.572412],[9.4539124,44.5606374],[9.4705618,44.5660661],[9.4916092,44.5581677],[9.4881805,44.5455699],[9.5046077,44.52996],[9.4946342,44.500403],[9.4968034,44.4827304],[9.4688731,44.4818807],[9.4714245,44.467952],[9.4581985,44.4422041],[9.4395996,44.4300785],[9.4402405,44.417085],[9.4705214,44.4248237],[9.4790343,44.4092585],[9.4944971,44.4241467],[9.5513125,44.428084],[9.5554961,44.441566],[9.5846094,44.4281933],[9.6077012,44.432313],[9.6370689,44.4148591],[9.6563189,44.4126165],[9.6750371,44.3640982],[9.6841986,44.3621715],[9.7171743,44.382927],[9.7425937,44.3801563],[9.7441144,44.3895042],[9.7603919,44.3900003],[9.7545333,44.3923122],[9.7567834,44.4071144],[9.8167722,44.4515339],[9.8196646,44.4663178],[9.9001715,44.4724497],[9.962849,44.4668788],[9.9712271,44.464194],[9.9762452,44.4478115],[9.9959362,44.4469516],[10.004962,44.4367012],[9.9897962,44.4042174],[10.0087341,44.3886195],[10.0534996,44.373245],[10.0988787,44.3460313],[10.143861,44.3534025],[10.1804664,44.3223896],[10.2033854,44.3194611],[10.2081567,44.3022533],[10.2263875,44.3001994],[10.2540765,44.2681854],[10.2965023,44.2861712],[10.3079294,44.2842588],[10.3441382,44.2694412],[10.373315,44.2699951],[10.4310713,44.2267545],[10.4656941,44.2311803],[10.4847614,44.2227603],[10.4933383,44.2166395],[10.4853456,44.2047038],[10.4897798,44.1969776],[10.517132,44.1830436],[10.5245983,44.157241],[10.5771572,44.1318626],[10.5933743,44.1149943],[10.6242648,44.120023],[10.6209226,44.1405791],[10.6438463,44.1601774],[10.6665953,44.1515444],[10.6925277,44.1577909],[10.75536,44.15388],[10.7743007,44.1341187],[10.8198075,44.1113956],[10.8303574,44.1171177],[10.8493504,44.0978973],[10.8766175,44.0999405],[10.9044605,44.0854975],[10.899033,44.0650325],[10.9102486,44.0626234],[10.9546314,44.0894833],[10.9685522,44.1140578],[10.9949895,44.1296976],[10.9918369,44.135811],[11.0071769,44.1385939],[11.0144297,44.137134],[11.0145777,44.1240679],[11.0045943,44.1211305],[11.0018406,44.1105023],[11.0497245,44.0905997],[11.08967,44.0897445],[11.1061553,44.1029628],[11.16065,44.1123682],[11.2442652,44.0971231],[11.2638252,44.1042877],[11.2603677,44.1157706],[11.2202689,44.1271261],[11.1959364,44.1424109],[11.1955107,44.151697],[11.2523779,44.1592667],[11.2811053,44.1537233],[11.2962507,44.1714951],[11.3232266,44.1808313],[11.3293555,44.1991767],[11.3435258,44.2061457],[11.3765486,44.1980028],[11.421834,44.2398101],[11.451593,44.22081],[11.4548442,44.21161],[11.4462506,44.201772],[11.4580723,44.1883422],[11.4664657,44.1932355],[11.4678691,44.1847987],[11.4835942,44.1844802],[11.4895613,44.1801636],[11.4831008,44.1766055],[11.5033713,44.1622972],[11.542167,44.1524914],[11.5633345,44.1677297],[11.5729428,44.1607088],[11.6151977,44.1573628],[11.6169708,44.1435923],[11.6040563,44.1385598],[11.6023,44.125129],[11.5882055,44.1234195],[11.5844307,44.1120007],[11.6106122,44.1189474],[11.6422032,44.1109202],[11.6470082,44.0989959],[11.6765245,44.1141444],[11.6790365,44.1234655],[11.7530586,44.1212091],[11.7355554,44.086428],[11.6972295,44.0521994],[11.6958509,44.035998],[11.6821842,44.0211455],[11.6572459,44.0176024],[11.6644279,44.0051181],[11.6496463,44.0061668],[11.6528421,43.9968478],[11.645047,43.9914081],[11.6512445,43.9786074],[11.6914876,43.9558026],[11.6851227,43.9351648],[11.7187915,43.9222664],[11.7079183,43.8872462],[11.711671,43.8769355],[11.7329274,43.8620342],[11.7862304,43.8465723],[11.8184142,43.8164426],[11.8415413,43.8075853],[11.8682822,43.8175153],[11.8854435,43.807937],[11.9105658,43.8133372],[11.918949,43.7935026],[11.9461666,43.7905569],[11.9582997,43.7738354],[11.9865851,43.7619177],[12.0063721,43.7665167],[12.0419979,43.7536572],[12.0518542,43.7573948],[12.0704869,43.7407635],[12.1058236,43.753516],[12.1406666,43.7519387],[12.1624794,43.7623362],[12.1953682,43.7308081],[12.2079248,43.7575394],[12.2520873,43.7518346],[12.2569893,43.760231],[12.2831921,43.7650083],[12.2895738,43.7869297],[12.2848539,43.7947948],[12.3158868,43.8056377],[12.3497944,43.7996015],[12.3661936,43.813326],[12.3871848,43.8154915],[12.3985444,43.8263582],[12.3909489,43.8449976],[12.4006086,43.8727748],[12.4456932,43.870806],[12.4644825,43.8915743],[12.4420244,43.9061347],[12.4088073,43.9021828],[12.4075711,43.9214881],[12.4152881,43.9305948],[12.4025729,43.9534876],[12.4365217,43.9566339],[12.5095662,43.992042],[12.5159305,43.9845966],[12.5063687,43.9580802],[12.5169591,43.9408539],[12.4929354,43.9184486],[12.4886284,43.8833304],[12.4993597,43.873587],[12.5181745,43.8810415],[12.5416922,43.8640278],[12.5624524,43.8698165],[12.5658963,43.8822433],[12.5894923,43.885645],[12.5893597,43.8652515],[12.6025614,43.8634348],[12.6055852,43.8452637],[12.6194397,43.844339],[12.6100132,43.8365641],[12.6140589,43.8274241],[12.623628,43.8210437],[12.659421,43.8282452],[12.6728853,43.8236533],[12.6831634,43.8285104],[12.6820395,43.8526176],[12.7236323,43.8612367],[12.7339925,43.870259],[12.7226533,43.8802805],[12.7339404,43.8961707],[12.7268305,43.9251601],[12.7559006,43.9623548],[12.7509671,43.9711656],[12.7304288,43.9699478],[12.6908086,43.9856763],[12.622984,44.0332356],[12.5767895,44.08184],[12.556669,44.0779721],[12.5245071,44.0990873],[12.4252292,44.1828026],[12.4054142,44.2088078],[12.3920104,44.2133005],[12.3559768,44.2674244],[12.3448692,44.319541],[12.2878957,44.4706581],[12.2859495,44.4864053],[12.3143626,44.4949572],[12.2863555,44.4868192],[12.2918939,44.493202],[12.2844378,44.4972508],[12.3140055,44.4977448],[12.2856248,44.4975543],[12.2830085,44.5038151],[12.2817117,44.5265807],[12.2759013,44.5269138],[12.2815957,44.5276705],[12.2858662,44.5538547],[12.2778236,44.5529971],[12.2733749,44.5539138],[12.2721373,44.5556647],[12.2778993,44.5534407],[12.2799159,44.553421],[12.2854747,44.5541001],[12.2821825,44.5905368],[12.2742985,44.6230803],[12.2498436,44.6612675],[12.2540744,44.6767233],[12.2433706,44.680741],[12.2409176,44.7095001],[12.248575,44.7632738],[12.2858498,44.8160536],[12.2577328,44.8151211],[12.2920713,44.8485641],[12.2902437,44.8399467],[12.3172233,44.8428611],[12.3397781,44.8173915],[12.3155133,44.7897123],[12.3663703,44.7835478],[12.3989637,44.7922924],[12.3538938,44.8162659],[12.3393556,44.8507723],[12.2957356,44.8584906],[12.2864628,44.8701052],[12.2814256,44.9093691],[12.294733,44.9269874],[12.2762394,44.9431006],[12.2628891,44.9373416],[12.254351,44.9419026],[12.2551383,44.9347001],[12.2398528,44.9350851],[12.2258533,44.9230949],[12.1892113,44.92595],[12.1710176,44.9419762],[12.141948,44.927953],[12.1271771,44.9327279],[12.1165144,44.9572672],[12.0998952,44.9624028],[12.0978729,44.9713001],[12.0597519,44.9694119],[11.9639321,44.986943],[11.9263139,44.9746657],[11.8089364,44.9778022],[11.7826467,44.9629992],[11.7439992,44.9562954],[11.7402277,44.9296229],[11.6697009,44.9141043],[11.6160703,44.8879887],[11.5929329,44.891873],[11.5814538,44.9150371],[11.5322942,44.9365974],[11.4279066,44.928191],[11.4272142,44.951959],[11.4014352,44.947766],[11.3985664,44.9550595],[11.3772165,44.958947],[11.3576778,44.9496075],[11.327187,44.9630225],[11.2851208,44.956617],[11.2722572,44.9383227],[11.2465842,44.9521626],[11.2387027,44.9451422],[11.1606965,44.9395879],[11.1524356,44.9332445],[11.1180215,44.9544667],[11.0733892,44.9629506],[11.0589188,44.9480876],[10.9971002,44.9549206],[10.9681614,44.9357279],[10.9516083,44.9342575],[10.9423829,44.9228586],[10.9179787,44.9250781],[10.8913196,44.9133983],[10.8969613,44.922394],[10.8771874,44.9170832],[10.8651969,44.9296065],[10.8484329,44.9247503],[10.8344296,44.9359776],[10.8075541,44.9340001],[10.7999005,44.9429348],[10.7435283,44.9488587],[10.7489735,44.962604],[10.7387944,44.9857473],[10.7272471,44.992012],[10.7129989,44.9861794],[10.711534,44.9740791],[10.6938713,44.9614677],[10.6890614,44.9655665],[10.6956339,44.9741633],[10.6855846,44.9873655],[10.6272892,44.9223541],[10.5664508,44.9102742],[10.520872,44.9136625],[10.4442866,44.9414912],[10.4106323,44.9814449],[10.3901091,44.9819618],[10.3612673,44.9650052],[10.3130454,44.9830892],[10.3030492,45.000939],[10.276165,44.9976325],[10.2539734,45.0183818],[10.210506,45.0332892],[10.187038,45.0279664],[10.1584779,45.0437716],[10.1442638,45.0333891],[10.0945481,45.0232383],[10.0815872,45.0472545],[10.0503825,45.0415846],[10.0488227,45.0565074],[10.0221582,45.0724734],[10.028822,45.0954963],[9.9851715,45.1343077],[9.9208495,45.1002349],[9.9122008,45.1041587],[9.9270125,45.1253452],[9.9204225,45.137762],[9.8835138,45.127833],[9.8759672,45.1163699],[9.900973,45.0963483],[9.8995355,45.0847449],[9.8811965,45.0748799],[9.8634429,45.0925564],[9.8372658,45.0947851],[9.830558,45.0829656],[9.8350393,45.0636928],[9.8239595,45.0526084],[9.8166849,45.0542464],[9.8143004,45.0790461],[9.7801704,45.0886844],[9.7568732,45.1118853],[9.7451242,45.1114719],[9.7535613,45.0867422],[9.7496086,45.0772587],[9.7151894,45.0582335],[9.6717096,45.0800315],[9.6323058,45.0854979],[9.6409144,45.116681],[9.6292036,45.1322566],[9.6179263,45.132313],[9.6101016,45.1093674],[9.585978,45.1006358],[9.5698104,45.1051915],[9.5576455,45.1284936],[9.5458346,45.1339991],[9.5363206,45.1205319],[9.5505429,45.0919707],[9.5347366,45.0794958],[9.5229234,45.0800151],[9.4997656,45.103924],[9.4388679,45.0938992],[9.4362524,45.0823286],[9.4126541,45.0838387],[9.4137414,45.0744999],[9.4003858,45.0737645],[9.3707991,45.0478314],[9.3767944,45.0406058],[9.3695113,45.0235848],[9.3759342,45.0185363],[9.3647302,45.0017212],[9.3445682,44.9947128],[9.3347246,44.9739027],[9.3381455,44.9647196],[9.3245472,44.9561487],[9.3220815,44.9445701],[9.3110296,44.9354098],[9.2858753,44.9340715],[9.2950067,44.9214293],[9.2776449,44.8955182],[9.2932597,44.8903524],[9.288877,44.8828829],[9.2950438,44.8798605],[9.3227423,44.8810107],[9.3266401,44.8725592],[9.3435669,44.8703041],[9.3477435,44.8402561],[9.3622739,44.8226784],[9.33876,44.8038876],[9.3213722,44.8005305],[9.31656,44.7833184],[9.2867446,44.7721444],[9.2877248,44.7577069],[9.3343205,44.7353715],[9.3086311,44.7056506],[9.3259302,44.6925042],[9.3032092,44.6880971],[9.2978054,44.6802027],[9.2815859,44.6800233],[9.2806302,44.6862373],[9.2605038,44.6801588],[9.2543583,44.6958593],[9.2484166,44.6983795],[9.2376022,44.7139945],[9.2361638,44.7142001],[9.2323168,44.7017262],[9.2429813,44.6866881],[9.2000515,44.6861158],[9.2064348,44.6602045],[9.1979117,44.6501459]],[[12.1696121,43.8042308],[12.1769099,43.8113186],[12.1871077,43.8039031],[12.229779,43.8088864],[12.2435911,43.7853071],[12.213435,43.7839256],[12.1921038,43.7718541],[12.1712808,43.7921351],[12.1696121,43.8042308]]],[[[9.2922755,44.7058602],[9.2900862,44.7000413],[9.30242,44.7031331],[9.2922755,44.7058602]]],[[[9.2973091,44.6926183],[9.3028578,44.6923966],[9.3054526,44.6962382],[9.3043611,44.6968893],[9.2973091,44.6926183]]],[[[10.4807358,44.190232],[10.4805778,44.1896218],[10.4808921,44.1896044],[10.4807358,44.190232]]]]}}
