{"type":"Feature","properties":{"source":"fr-lidarhd-mnt-31","attribution":"outline \u00a9 OpenStreetMap contributors, ODbL 1.0, by Geofabrik"},"geometry":{"type":"MultiPolygon","coordinates":[[[[6.0,41.833533],[3.176237,42.43371],[3.083413,42.42015],[3.026463,42.46648],[2.837709,42.4449],[2.78853,42.40826],[2.708677,42.41289],[2.663866,42.37779],[2.691517,42.33398],[2.559084,42.34963],[2.548566,42.32755],[2.480866,42.33811],[2.402161,42.39066],[2.25449,42.42562],[2.204567,42.41458],[2.131985,42.40938],[2.103023,42.35347],[2.015824,42.34351],[1.967745,42.3693],[1.930762,42.44482],[1.897025,42.44444],[1.715368,42.49186],[1.721935,42.51842],[1.733308,42.54018],[1.733994,42.54989],[1.73996,42.5862],[1.726074,42.5869],[1.7051,42.61127],[1.596991,42.62443],[1.537782,42.64797],[1.482483,42.64068],[1.48028,42.60966],[1.458178,42.59845],[1.436179,42.59784],[1.333942,42.71582],[1.278561,42.71122],[1.15799,42.70307],[1.063964,42.77432],[0.941806,42.78718],[0.929862,42.78272],[0.851898,42.82326],[0.685407,42.8488],[0.664481,42.75647],[0.68917,42.71239],[0.681699,42.68734],[0.413077,42.68797],[0.355418,42.71399],[0.305323,42.66539],[0.192003,42.72941],[0.009936,42.67894],[0.0,42.680598],[0.0,50.558175],[1.263308,50.92504],[2.338938,51.4288],[2.565332,51.06589],[2.583292,51.00078],[2.612142,50.9923],[2.637097,50.94448],[2.610007,50.91976],[2.631189,50.83253],[2.724426,50.81543],[2.785034,50.75253],[2.811623,50.72165],[2.848185,50.72487],[2.900805,50.70449],[2.936352,50.74634],[3.004094,50.77965],[3.05609,50.78272],[3.112746,50.79655],[3.151858,50.79197],[3.201828,50.7358],[3.212998,50.7159],[3.247236,50.71366],[3.2657,50.70288],[3.270985,50.67452],[3.247681,50.66492],[3.285786,50.59875],[3.293582,50.53136],[3.383281,50.50011],[3.477201,50.53878],[3.527813,50.52325],[3.502235,50.49618],[3.570041,50.50262],[3.611669,50.49798],[3.672405,50.4527],[3.675957,50.4037],[3.680763,50.33713],[3.702368,50.31903],[3.745572,50.3571],[3.847269,50.35704],[3.907037,50.33462],[4.019507,50.36707],[4.099844,50.31431],[4.208602,50.27597],[4.229065,50.25562],[4.167066,50.20974],[4.150909,50.13764],[4.203708,50.13668],[4.236622,50.06639],[4.149156,50.02673],[4.205988,49.96177],[4.309461,49.97151],[4.430317,49.94678],[4.671075,50.0073],[4.67542,50.06663],[4.695282,50.09427],[4.758854,50.13708],[4.824017,50.17007],[4.880676,50.15491],[4.901517,50.13981],[4.875612,50.08635],[4.843484,50.07472],[4.846397,50.04192],[4.815237,49.98043],[4.899263,49.9095],[4.864919,49.86129],[4.886018,49.80282],[4.99809,49.8034],[5.010602,49.78463],[5.095318,49.76647],[5.130979,49.72719],[5.166264,49.71575],[5.172503,49.69729],[5.269212,49.69903],[5.330195,49.66086],[5.34221,49.63741],[5.418881,49.61136],[5.464153,49.55985],[5.473374,49.50552],[5.5573,49.53101],[5.60362,49.52331],[5.648722,49.55716],[5.699646,49.54849],[5.771656,49.56579],[5.838375,49.54381],[5.867901,49.50504],[5.941887,49.50169],[5.973558,49.4923],[5.976176,49.47978],[5.977464,49.46416],[5.989265,49.46394],[5.988972,49.45838],[6.0,49.457731],[6.0,46.217841],[5.99411,46.21453],[5.965748,46.19712],[5.992552,46.18791],[5.997395,46.17999],[5.967121,46.14517],[5.987793,46.14547],[6.0,46.144706],[6.0,41.833533]]]]}}
