{"type":"Feature","properties":{"source":"fr-lidarhd-mns-32","attribution":"outline \u00a9 OpenStreetMap contributors, ODbL 1.0, by Geofabrik"},"geometry":{"type":"MultiPolygon","coordinates":[[[[9.9,42.43788],[9.9,41.41346],[9.328765,41.32062],[9.286847,41.28319],[8.798805,41.23866],[6.0,41.833533],[6.0,49.457731],[6.043339,49.45518],[6.055183,49.46723],[6.09621,49.46628],[6.101789,49.47248],[6.119814,49.4756],[6.126766,49.49444],[6.168823,49.51145],[6.242466,49.51585],[6.26976,49.50565],[6.280489,49.50381],[6.282334,49.50074],[6.28963,49.49458],[6.30023,49.48853],[6.353059,49.46768],[6.364946,49.46087],[6.367092,49.47069],[6.39121,49.466],[6.420994,49.47794],[6.430521,49.47761],[6.455069,49.46595],[6.466141,49.46818],[6.486826,49.45395],[6.499958,49.45133],[6.538238,49.43654],[6.562271,49.41957],[6.540213,49.41136],[6.552915,49.40025],[6.565189,49.39109],[6.58184,49.39249],[6.589565,49.38416],[6.587505,49.37729],[6.604156,49.36717],[6.590595,49.34923],[6.573257,49.34386],[6.592398,49.33704],[6.596861,49.32982],[6.591625,49.32205],[6.6257,49.30408],[6.651449,49.28925],[6.671533,49.28102],[6.669989,49.26988],[6.666298,49.2645],[6.694021,49.24865],[6.6893,49.24366],[6.695652,49.21709],[6.720886,49.22365],[6.734762,49.20596],[6.713848,49.18799],[6.724834,49.17564],[6.73994,49.167],[6.782341,49.17037],[6.835384,49.15398],[6.844997,49.15712],[6.843195,49.16335],[6.843023,49.17323],[6.859252,49.17885],[6.856842,49.1849],[6.848688,49.19309],[6.847143,49.20218],[6.833668,49.21266],[6.856204,49.22345],[6.939411,49.22399],[6.958809,49.20526],[6.973743,49.21143],[7.014341,49.19477],[7.037086,49.19225],[7.035284,49.1803],[7.029447,49.17205],[7.034855,49.16431],[7.048931,49.13719],[7.045841,49.1218],[7.048588,49.11624],[7.055712,49.11326],[7.065668,49.11557],[7.06747,49.1222],[7.082062,49.13175],[7.078714,49.14854],[7.081032,49.15381],[7.101116,49.15684],[7.107639,49.15606],[7.113819,49.1528],[7.128067,49.14314],[7.137337,49.12933],[7.166519,49.13051],[7.18317,49.13231],[7.206087,49.12534],[7.245312,49.13124],[7.300157,49.12355],[7.312603,49.13893],[7.329855,49.14663],[7.359896,49.14522],[7.360496,49.17323],[7.447786,49.18653],[7.448387,49.1835],[7.439632,49.17783],[7.4471,49.17048],[7.496624,49.17082],[7.510271,49.15297],[7.497911,49.13759],[7.507439,49.12529],[7.518511,49.12332],[7.533102,49.09882],[7.603397,49.08466],[7.629604,49.07796],[7.641334,49.05576],[7.696609,49.05992],[7.762356,49.05452],[7.794199,49.06746],[7.812567,49.06189],[7.863636,49.03967],[7.88784,49.05058],[7.933797,49.05955],[7.946634,49.05604],[7.95114,49.04769],[7.967405,49.04338],[7.979164,49.02982],[7.999206,49.02937],[8.049717,49.01536],[8.064694,49.00635],[8.071046,48.99776],[8.12366,48.98712],[8.135805,48.98154],[8.138165,48.97993],[8.169966,48.97968],[8.184986,48.97879],[8.196405,48.97762],[8.226226,48.97706],[8.235465,48.96555],[8.195738,48.94824],[8.137092,48.88063],[8.124046,48.81851],[8.074952,48.7889],[8.017317,48.75802],[7.977616,48.73705],[7.966976,48.71237],[7.907307,48.6582],[7.860343,48.64026],[7.805786,48.57558],[7.813511,48.52479],[7.808018,48.50762],[7.783813,48.48601],[7.780554,48.47652],[7.746219,48.38795],[7.752914,48.32179],[7.730419,48.30298],[7.699444,48.23911],[7.609234,48.15406],[7.602402,48.13405],[7.581696,48.11462],[7.595516,48.09649],[7.575647,48.03242],[7.616648,47.99853],[7.628959,47.97058],[7.584643,47.89773],[7.567523,47.84391],[7.533792,47.77697],[7.55191,47.74231],[7.554834,47.72587],[7.522382,47.70202],[7.522266,47.67038],[7.568069,47.63648],[7.599707,47.60269],[7.586918,47.57479],[7.568657,47.57537],[7.559186,47.5645],[7.537093,47.55492],[7.518425,47.54467],[7.499885,47.53772],[7.503405,47.5307],[7.525206,47.53743],[7.533359,47.52856],[7.52409,47.51361],[7.51276,47.5099],[7.512245,47.49633],[7.490101,47.48136],[7.458,47.46802],[7.399463,47.42727],[7.324276,47.43761],[7.244453,47.41798],[7.166175,47.44156],[7.180611,47.48424],[7.123379,47.49519],[7.073582,47.48623],[7.017036,47.50156],[6.99012,47.49177],[7.008271,47.45709],[6.996815,47.44629],[6.923513,47.39414],[6.886725,47.35942],[7.045077,47.37892],[7.071103,47.33632],[6.955017,47.26808],[6.959622,47.24318],[6.859946,47.16892],[6.863693,47.15944],[6.762511,47.10584],[6.724583,47.05046],[6.636254,46.99539],[6.477084,46.94731],[6.450383,46.92278],[6.477536,46.87973],[6.447514,46.80017],[6.480897,46.7811],[6.122464,46.5755],[6.166862,46.54304],[6.07533,46.41927],[6.177486,46.37396],[6.126079,46.31516],[6.133713,46.30227],[6.133461,46.2505],[6.109857,46.22902],[6.097746,46.22131],[6.059406,46.23123],[6.052694,46.22646],[6.034452,46.23721],[6.0,46.217841],[6.0,46.144706],[6.044961,46.14189],[6.050575,46.15224],[6.091467,46.15266],[6.111574,46.14398],[6.14891,46.15088],[6.187448,46.16634],[6.183071,46.17846],[6.20573,46.19278],[6.23311,46.20752],[6.294291,46.2264],[6.30744,46.24599],[6.291475,46.25745],[6.266756,46.24356],[6.234226,46.27501],[6.245384,46.30206],[6.211309,46.31398],[6.264181,46.38458],[6.624293,46.49704],[6.836175,46.45196],[6.804248,46.38968],[6.808963,46.38216],[6.793157,46.34152],[6.869543,46.28553],[6.858857,46.25292],[6.810446,46.20361],[6.822936,46.13691],[6.904849,46.12709],[6.940736,46.06656],[7.094688,45.91969],[6.940965,45.83551],[6.82003,45.81591],[6.829337,45.71123],[7.012493,45.64465],[7.009821,45.52013],[7.110975,45.47131],[7.19206,45.40674],[7.139578,45.30455],[7.144923,45.25531],[7.080046,45.20884],[6.980034,45.20287],[6.951246,45.16805],[6.895852,45.13346],[6.847371,45.1246],[6.78635,45.15017],[6.639546,45.09804],[6.664861,45.07298],[6.681253,45.02691],[6.753322,45.02224],[6.787871,44.89831],[6.90921,44.85059],[6.930832,44.86853],[7.027325,44.83719],[7.043637,44.72277],[7.069489,44.71579],[7.082193,44.67768],[6.984578,44.68155],[6.954428,44.65258],[6.976129,44.62322],[6.929081,44.56146],[6.859932,44.5298],[6.954603,44.4281],[6.901817,44.37246],[7.001151,44.28406],[7.00962,44.24643],[7.100105,44.22949],[7.188148,44.20436],[7.296657,44.14937],[7.347362,44.14755],[7.360254,44.12652],[7.623408,44.16728],[7.628561,44.17919],[7.689757,44.18558],[7.680372,44.1235],[7.731295,44.07925],[7.651235,43.96522],[7.580754,43.94251],[7.565829,43.89753],[7.503786,43.8704],[7.534675,43.77821],[9.810986,43.20419],[9.9,42.43788]]]]}}
