{"type":"Feature","properties":{"source":"fr-lidarhd-mns-30","attribution":"outline \u00a9 OpenStreetMap contributors, ODbL 1.0, by Geofabrik"},"geometry":{"type":"MultiPolygon","coordinates":[[[[0.0,42.680598],[-0.064511,42.69136],[-0.110437,42.71887],[-0.204079,42.7902],[-0.342241,42.83365],[-0.381432,42.79723],[-0.44148,42.79259],[-0.506315,42.81662],[-0.537093,42.77334],[-0.56961,42.7792],[-0.686815,42.87147],[-0.73235,42.88842],[-0.756054,42.96415],[-0.809467,42.94895],[-0.951265,42.94996],[-1.120291,43.01295],[-1.139513,43.00476],[-1.227202,43.05215],[-1.250002,43.03704],[-1.314324,43.06835],[-1.296915,43.11313],[-1.328943,43.10377],[-1.346643,43.02447],[-1.447267,43.0455],[-1.479677,43.08436],[-1.415645,43.15543],[-1.388447,43.24896],[-1.547573,43.28599],[-1.571828,43.24545],[-1.617394,43.24945],[-1.634897,43.28298],[-1.633187,43.30369],[-1.692238,43.30744],[-1.731377,43.28945],[-1.74511,43.31444],[-1.751805,43.32992],[-1.774807,43.34128],[-1.79163,43.35299],[-1.782704,43.363],[-1.791115,43.36756],[-1.792231,43.37667],[-1.777023,43.39261],[-6.0,47.573879],[-6.0,48.704886],[-2.790533,49.40025],[-2.02149,48.95137],[-1.873172,49.26781],[-2.191778,49.4717],[-2.062684,49.95917],[0.0,50.558175],[0.0,42.680598]]]]}}
