{"type":"Feature","properties":{"source":"galicia-mdt","attribution":"outline \u00a9 OpenStreetMap contributors, ODbL 1.0, by Geofabrik"},"geometry":{"type":"MultiPolygon","coordinates":[[[[-6.964515,43.99911],[-7.032108,43.56273],[-7.029877,43.54198],[-7.024641,43.53679],[-7.032623,43.52764],[-7.039919,43.50113],[-7.04421,43.49045],[-7.045627,43.47753],[-7.051377,43.47257],[-7.068243,43.46522],[-7.076268,43.46404],[-7.08571,43.44416],[-7.095709,43.44058],[-7.096782,43.43292],[-7.100515,43.42759],[-7.108669,43.42335],[-7.127166,43.42117],[-7.14253,43.42768],[-7.167077,43.42712],[-7.166991,43.4034],[-7.175274,43.38889],[-7.157679,43.37832],[-7.136135,43.38796],[-7.123432,43.37536],[-7.124119,43.35814],[-7.125321,43.34453],[-7.094937,43.30432],[-7.068672,43.31331],[-7.057171,43.31007],[-7.058373,43.25145],[-7.041207,43.2322],[-7.013226,43.22694],[-6.964302,43.20793],[-6.959152,43.18741],[-6.969967,43.16149],[-6.946621,43.1387],[-6.879502,43.18678],[-6.869202,43.19541],[-6.835213,43.16963],[-6.81633,43.14458],[-6.826286,43.11865],[-6.868515,43.08895],[-6.915379,43.07002],[-6.937008,43.07691],[-6.958637,43.05773],[-6.957264,43.04154],[-6.873322,42.99712],[-6.830235,42.95981],[-6.818905,42.91646],[-6.823368,42.90741],[-6.810322,42.87131],[-6.837616,42.83456],[-6.835041,42.82348],[-6.859245,42.78784],[-6.892376,42.76315],[-6.935806,42.73743],[-6.946449,42.73825],[-6.95838,42.74726],[-6.969194,42.72457],[-6.984043,42.71656],[-6.993742,42.72337],[-7.016916,42.71],[-7.025585,42.70685],[-7.037516,42.69411],[-7.013054,42.66937],[-6.999664,42.64173],[-7.039147,42.63137],[-7.039747,42.60181],[-7.027044,42.58589],[-7.04936,42.56376],[-7.050905,42.51463],[-6.976061,42.51311],[-6.963787,42.52019],[-6.931686,42.52418],[-6.878557,42.50311],[-6.838303,42.49881],[-6.823025,42.49685],[-6.80397,42.46836],[-6.817467,42.44332],[-6.819227,42.43497],[-6.81221,42.4265],[-6.819677,42.42088],[-6.828218,42.41603],[-6.828239,42.41023],[-6.806717,42.38866],[-6.779423,42.3848],[-6.727066,42.36184],[-6.735993,42.29763],[-6.762772,42.25813],[-6.784058,42.21352],[-6.795388,42.20716],[-6.870232,42.21555],[-6.941128,42.14107],[-6.987047,42.10077],[-7.001553,42.08408],[-7.011595,42.05694],[-6.970139,42.05745],[-6.955033,42.02915],[-6.974988,42.00753],[-6.976962,42.00125],[-6.986962,41.98782],[-6.978378,41.97034],[-6.990137,41.95914],[-7.009467,41.9474],[-7.070791,41.94686],[-7.140343,41.98889],[-7.157407,41.97496],[-7.176346,41.97776],[-7.184385,41.96931],[-7.180775,41.95157],[-7.182549,41.9408],[-7.1719,41.91911],[-7.18261,41.8978],[-7.19575,41.87838],[-7.231034,41.86564],[-7.253169,41.86227],[-7.308816,41.84212],[-7.356211,41.83808],[-7.383649,41.84035],[-7.395982,41.82119],[-7.427711,41.80443],[-7.44617,41.83703],[-7.452914,41.86243],[-7.485302,41.85973],[-7.492484,41.86885],[-7.509791,41.86342],[-7.503777,41.8492],[-7.540135,41.83039],[-7.61696,41.82602],[-7.614216,41.84606],[-7.60408,41.8664],[-7.589016,41.87769],[-7.608166,41.87799],[-7.61732,41.88218],[-7.628218,41.87786],[-7.659008,41.88081],[-7.699954,41.90597],[-7.731114,41.89078],[-7.742938,41.89155],[-7.759747,41.89725],[-7.783253,41.8828],[-7.836983,41.8778],[-7.838745,41.86598],[-7.873764,41.84271],[-7.895222,41.85806],[-7.885557,41.88348],[-7.888482,41.9054],[-7.886263,41.92446],[-7.902097,41.92475],[-7.918194,41.87878],[-7.945466,41.86967],[-7.979411,41.87092],[-8.011658,41.82768],[-8.032384,41.82772],[-8.055235,41.81432],[-8.092522,41.80708],[-8.121925,41.80559],[-8.167992,41.81674],[-8.164902,41.84859],[-8.170953,41.87479],[-8.201294,41.8725],[-8.204429,41.88911],[-8.215463,41.89563],[-8.218676,41.91185],[-8.200837,41.93898],[-8.178815,41.95567],[-8.165175,41.98401],[-8.141554,41.99046],[-8.131392,42.0058],[-8.087552,42.01714],[-8.087117,42.04741],[-8.098351,42.06801],[-8.12067,42.07929],[-8.171158,42.06441],[-8.187058,42.06623],[-8.195801,42.12968],[-8.189535,42.13731],[-8.197432,42.14864],[-8.204813,42.1405],[-8.229789,42.12874],[-8.240965,42.1364],[-8.258106,42.11996],[-8.273306,42.12191],[-8.298369,42.10548],[-8.303003,42.10328],[-8.314033,42.10243],[-8.320169,42.10115],[-8.323259,42.09857],[-8.323431,42.09341],[-8.324075,42.0901],[-8.332577,42.0822],[-8.344288,42.08364],[-8.353429,42.08803],[-8.361712,42.08806],[-8.369136,42.08462],[-8.382354,42.07478],[-8.390894,42.07424],[-8.397803,42.07892],[-8.402614,42.07887],[-8.411708,42.07606],[-8.419519,42.07204],[-8.429904,42.07163],[-8.438659,42.07784],[-8.446635,42.08132],[-8.478398,42.08013],[-8.484364,42.0809],[-8.489857,42.08045],[-8.495693,42.07886],[-8.500071,42.07736],[-8.51419,42.07752],[-8.521142,42.07787],[-8.525221,42.07546],[-8.525605,42.06679],[-8.523717,42.06427],[-8.526979,42.06099],[-8.536892,42.05732],[-8.546848,42.05347],[-8.561053,42.05181],[-8.573585,42.05222],[-8.582425,42.05136],[-8.597531,42.0542],[-8.634997,42.04668],[-8.645983,42.0361],[-8.65551,42.02991],[-8.656626,42.01818],[-8.659507,42.00363],[-8.678779,41.98933],[-8.699713,41.98233],[-8.721943,41.97583],[-8.742199,41.96523],[-8.746061,41.95604],[-8.745718,41.94679],[-8.747477,41.93935],[-8.764076,41.92557],[-8.778591,41.91965],[-8.787174,41.91492],[-8.8106,41.90503],[-8.829854,41.89206],[-8.843651,41.87864],[-8.853564,41.87288],[-8.863049,41.87055],[-8.870688,41.86234],[-9.214475,41.84694],[-9.600434,42.6761],[-9.779014,44.14855],[-6.964515,43.99911]]]]}}
