{"type":"Feature","properties":{"source":"lombardia-dtm","attribution":"outline \u00a9 OpenStreetMap contributors, ODbL 1.0, by Nominatim"},"geometry":{"type":"MultiPolygon","coordinates":[[[[8.4978518,45.2917672],[8.5168155,45.2912932],[8.5140772,45.2743206],[8.5351059,45.2778017],[8.5330483,45.2581432],[8.5436197,45.2539822],[8.5360139,45.2475875],[8.5227683,45.2546261],[8.5251773,45.2469061],[8.5561804,45.2413959],[8.5290974,45.2395141],[8.5436511,45.2340013],[8.5232449,45.2216039],[8.5480486,45.2041248],[8.5254165,45.2019896],[8.5279594,45.1945919],[8.5511926,45.1959795],[8.5568762,45.2051743],[8.5777938,45.2079157],[8.5811897,45.2022262],[8.5535608,45.1909502],[8.5429346,45.172842],[8.5569272,45.1667378],[8.5543778,45.1573594],[8.5806611,45.1522684],[8.5917421,45.1313224],[8.6141632,45.1265462],[8.6090947,45.1068895],[8.6459876,45.0753328],[8.636897,45.0665276],[8.6469489,45.0546858],[8.6346019,45.040962],[8.6522627,45.0349229],[8.6518798,45.0233724],[8.6592382,45.0179237],[8.6672896,45.0285651],[8.6812833,45.0290484],[8.6929931,45.0198468],[8.7103267,45.0382471],[8.7251093,45.0220275],[8.7511023,45.0203394],[8.7481446,45.0094159],[8.7651441,45.0130551],[8.7717482,45.0067807],[8.7776986,45.0237339],[8.8007494,45.0228582],[8.7962125,45.0358128],[8.8134937,45.0301082],[8.8055896,45.0370804],[8.8232097,45.036785],[8.8230888,45.047695],[8.8270079,45.0403195],[8.8421222,45.0426301],[8.8430523,45.0507218],[8.8667424,45.0456929],[8.8656625,45.0517228],[8.887399,45.0597954],[8.8810586,45.0540803],[8.8987156,45.0498305],[8.9012737,45.0077628],[8.9165442,44.9870842],[8.9425001,44.9810948],[8.9614408,44.9870048],[8.97906,44.9670702],[8.9802533,44.9519875],[8.9717206,44.9539211],[8.9695902,44.9434915],[8.9915899,44.9307533],[8.9886129,44.9250818],[9.0021622,44.9174037],[8.9996877,44.9093199],[9.0304559,44.8881179],[9.0556689,44.8885978],[9.0700667,44.8646843],[9.0490038,44.8498599],[9.0729065,44.828035],[9.0726397,44.8170886],[9.0951451,44.8190255],[9.1089923,44.8054378],[9.1609768,44.8147387],[9.1551195,44.8094085],[9.1746078,44.7971194],[9.1717256,44.7716835],[9.2135504,44.7523482],[9.2006546,44.686459],[9.2163933,44.6835007],[9.2429813,44.6866881],[9.2323168,44.7017262],[9.2361638,44.7142001],[9.2605038,44.6801588],[9.2806302,44.6862373],[9.2815859,44.6800233],[9.2978054,44.6802027],[9.303685,44.6882894],[9.3244766,44.6898436],[9.3086311,44.7056506],[9.3343205,44.7353715],[9.2877248,44.7577069],[9.2867446,44.7721444],[9.31656,44.7833184],[9.3213722,44.8005305],[9.33876,44.8038876],[9.3622933,44.8217695],[9.3477435,44.8402561],[9.3435669,44.8703041],[9.3266401,44.8725592],[9.3227423,44.8810107],[9.2950438,44.8798605],[9.288877,44.8828829],[9.2932597,44.8903524],[9.2776449,44.8955182],[9.2950067,44.9214293],[9.2858753,44.9340715],[9.3110296,44.9354098],[9.3220815,44.9445701],[9.3245472,44.9561487],[9.3381455,44.9647196],[9.3347246,44.9739027],[9.3445682,44.9947128],[9.3647302,45.0017212],[9.3759342,45.0185363],[9.3695113,45.0235848],[9.3767944,45.0406058],[9.3707991,45.0478314],[9.4003858,45.0737645],[9.4137414,45.0744999],[9.4126541,45.0838387],[9.4362524,45.0823286],[9.4388679,45.0938992],[9.4997656,45.103924],[9.5229234,45.0800151],[9.5347366,45.0794958],[9.5505429,45.0919707],[9.5363206,45.1205319],[9.5458346,45.1339991],[9.5576455,45.1284936],[9.5698104,45.1051915],[9.585978,45.1006358],[9.6101016,45.1093674],[9.6179263,45.132313],[9.6292036,45.1322566],[9.6409144,45.116681],[9.6323058,45.0854979],[9.6717096,45.0800315],[9.7151894,45.0582335],[9.7496086,45.0772587],[9.7535613,45.0867422],[9.7451242,45.1114719],[9.7568732,45.1118853],[9.7801704,45.0886844],[9.8143004,45.0790461],[9.8166849,45.0542464],[9.8239595,45.0526084],[9.8350393,45.0636928],[9.830558,45.0829656],[9.8372658,45.0947851],[9.8634429,45.0925564],[9.8811965,45.0748799],[9.8995355,45.0847449],[9.900973,45.0963483],[9.8759672,45.1163699],[9.8835138,45.127833],[9.9204225,45.137762],[9.9270125,45.1253452],[9.9122008,45.1041587],[9.9208495,45.1002349],[9.9851715,45.1343077],[10.028822,45.0954963],[10.0221582,45.0724734],[10.0488227,45.0565074],[10.0503825,45.0415846],[10.0815872,45.0472545],[10.0945481,45.0232383],[10.1442638,45.0333891],[10.1584779,45.0437716],[10.187038,45.0279664],[10.2212961,45.0306738],[10.2539734,45.0183818],[10.276165,44.9976325],[10.3044222,45.0003058],[10.3130454,44.9830892],[10.3612673,44.9650052],[10.3901091,44.9819618],[10.4161337,44.9793691],[10.4423278,44.9424769],[10.520872,44.9136625],[10.5664508,44.9102742],[10.6265338,44.9220269],[10.6855846,44.9873655],[10.6956339,44.9741633],[10.6890614,44.9655665],[10.6938713,44.9614677],[10.711534,44.9740791],[10.7129989,44.9861794],[10.7272471,44.992012],[10.7387944,44.9857473],[10.7489735,44.962604],[10.7435283,44.9488587],[10.7999005,44.9429348],[10.8075541,44.9340001],[10.8344296,44.9359776],[10.8484329,44.9247503],[10.8651969,44.9296065],[10.8771874,44.9170832],[10.8969613,44.922394],[10.8913196,44.9133983],[10.9179787,44.9250781],[10.9423829,44.9228586],[10.9516083,44.9342575],[10.9681614,44.9357279],[10.9971002,44.9549206],[11.0589188,44.9480876],[11.0733892,44.9629506],[11.1180215,44.9544667],[11.1524356,44.9332445],[11.1606965,44.9395879],[11.2387027,44.9451422],[11.2465842,44.9521626],[11.2722572,44.9383227],[11.2851208,44.956617],[11.3010301,44.9572529],[11.3014333,44.96275],[11.327187,44.9630225],[11.3576778,44.9496075],[11.3772165,44.958947],[11.3985664,44.9550595],[11.4014352,44.947766],[11.4276477,44.9546655],[11.4207772,44.9652857],[11.3303864,44.992502],[11.3036848,45.0165231],[11.2756556,45.0172995],[11.2625858,45.0309639],[11.2712977,45.0469597],[11.2648287,45.0561654],[11.2361963,45.0429514],[11.2109004,45.0580884],[11.1741857,45.0590159],[11.1746456,45.0744901],[11.1883682,45.0840848],[11.1768164,45.0884915],[11.1775087,45.097345],[11.2037958,45.1117203],[11.1876756,45.1098151],[11.1459392,45.1262906],[11.1375886,45.1238965],[11.1276352,45.1031667],[11.1017535,45.1138026],[11.094526,45.1057541],[11.0980098,45.0961166],[11.0738651,45.0982532],[11.0285296,45.1237742],[11.0440668,45.1344972],[11.0419748,45.1437218],[11.0497736,45.1505796],[11.0318844,45.1494047],[11.0283221,45.1593212],[11.0107648,45.149091],[10.9939314,45.1504444],[10.9988003,45.1649714],[10.9907491,45.1825706],[10.9968949,45.1871968],[10.9838886,45.2004],[10.9335721,45.2137002],[10.9363856,45.2329614],[10.8459692,45.2563256],[10.8300549,45.2845274],[10.7830599,45.3156942],[10.7366735,45.2868206],[10.7276744,45.2932386],[10.7307563,45.3158756],[10.7062456,45.3163096],[10.7146854,45.3342839],[10.6889769,45.3420963],[10.6851657,45.3535703],[10.7147102,45.3675872],[10.6973585,45.380189],[10.7165532,45.3979558],[10.7153419,45.4169646],[10.664617,45.4283223],[10.6544987,45.4157029],[10.6436657,45.4178084],[10.6520934,45.4281232],[10.6444888,45.4322652],[10.6492801,45.4407684],[10.6424444,45.4438655],[10.6272143,45.4384631],[10.6232497,45.4401798],[10.6480545,45.4485768],[10.6279052,45.6068862],[10.6904738,45.659867],[10.842675,45.8318248],[10.8252964,45.8378781],[10.7915181,45.8333572],[10.7734369,45.8430791],[10.7562734,45.8301655],[10.7444594,45.840822],[10.7100858,45.8361506],[10.6995276,45.8417103],[10.6758708,45.8306117],[10.6532268,45.8328029],[10.6571992,45.8232881],[10.6446099,45.8031139],[10.600939,45.8029801],[10.5622721,45.7838024],[10.5326699,45.7881011],[10.5338499,45.8049522],[10.525956,45.805431],[10.544049,45.81714],[10.5023504,45.8302765],[10.5079821,45.840994],[10.5043412,45.874114],[10.4904499,45.8844881],[10.4943889,45.899832],[10.5077678,45.9050967],[10.5086452,45.9234774],[10.4847376,45.9452037],[10.488777,45.9717336],[10.4535827,45.9765076],[10.4530101,45.9895339],[10.4583682,46.0103379],[10.4847833,46.024529],[10.481021,46.0562085],[10.5172624,46.0799899],[10.5495795,46.1173071],[10.5468112,46.1448679],[10.5654924,46.1667756],[10.541282,46.1900596],[10.5702238,46.2212366],[10.5682525,46.2337142],[10.585771,46.245334],[10.5757004,46.2756781],[10.5596987,46.2831512],[10.5796093,46.2988182],[10.5644202,46.3140368],[10.5658128,46.3263203],[10.5157899,46.3459938],[10.5197291,46.355895],[10.5400479,46.3547768],[10.5411888,46.364211],[10.5672721,46.3779178],[10.6074793,46.3793524],[10.6327598,46.4014929],[10.6175386,46.4161492],[10.6223034,46.4481306],[10.6003433,46.4687409],[10.5772644,46.4734676],[10.5501831,46.4923011],[10.4767705,46.4955639],[10.4566292,46.5082022],[10.4528003,46.5306824],[10.4191246,46.5510785],[10.3970401,46.5439172],[10.3518676,46.5558788],[10.33819,46.5427256],[10.3254683,46.5517323],[10.2960711,46.5499735],[10.2874191,46.5703962],[10.2693359,46.5776933],[10.2460723,46.575007],[10.2418397,46.5915995],[10.2590847,46.6102159],[10.2399377,46.6353163],[10.2153195,46.6169394],[10.1927651,46.6259337],[10.1276236,46.6051029],[10.1023535,46.6107363],[10.1006758,46.5827219],[10.0786732,46.5751226],[10.0823344,46.5634925],[10.043892,46.5404664],[10.0539918,46.5226654],[10.0422688,46.5100453],[10.0490901,46.4995961],[10.0428271,46.4800312],[10.0544643,46.4646603],[10.0419084,46.4428648],[10.0562782,46.4408682],[10.0614963,46.4274336],[10.0771538,46.4281898],[10.080174,46.4210851],[10.1430098,46.4283238],[10.1476693,46.4142237],[10.1611339,46.4153874],[10.1667266,46.4075934],[10.1620242,46.3875142],[10.127659,46.377744],[10.1291198,46.3608824],[10.1084459,46.3523268],[10.1059596,46.3421767],[10.1166088,46.3140817],[10.1542821,46.2927843],[10.1765238,46.2582761],[10.1323238,46.2248767],[10.0946838,46.2285853],[10.0703692,46.2171662],[10.0438085,46.229717],[10.0606499,46.2482616],[10.055535,46.265835],[9.9959304,46.2849247],[9.9917375,46.2962565],[10.00076,46.3015575],[10.0000665,46.3131885],[9.9799448,46.3231282],[9.9963818,46.351142],[9.9645192,46.3637647],[9.9579571,46.3789399],[9.9251799,46.3659841],[9.9067981,46.3808784],[9.8682052,46.3623607],[9.8326651,46.3609728],[9.7768719,46.3348247],[9.7369347,46.3509178],[9.72296,46.3407507],[9.7275236,46.332686],[9.717357,46.3235164],[9.7260028,46.3135079],[9.7097531,46.2919088],[9.6873858,46.293926],[9.6769697,46.3031251],[9.634983,46.286119],[9.5781775,46.2954447],[9.5601576,46.306164],[9.5495751,46.3023376],[9.5184896,46.3270969],[9.4964149,46.3643227],[9.4610869,46.3759888],[9.4690055,46.3886322],[9.454435,46.4207798],[9.4655893,46.4695003],[9.4628725,46.4804962],[9.4490956,46.4843765],[9.4610359,46.4848442],[9.4635588,46.5088716],[9.4341905,46.497908],[9.4116585,46.4669247],[9.3763638,46.4846613],[9.3684878,46.4940939],[9.3733583,46.5039425],[9.363695,46.5093089],[9.2822473,46.4964682],[9.2742137,46.4836909],[9.2781847,46.4616998],[9.247002,46.4467941],[9.2481872,46.4332321],[9.2802527,46.4141623],[9.275835,46.3948932],[9.2843719,46.3850847],[9.2760719,46.3677678],[9.2962933,46.3555842],[9.299867,46.3436022],[9.2921163,46.3361995],[9.2993603,46.3275403],[9.2815698,46.3093563],[9.2848827,46.297047],[9.2504714,46.2665102],[9.248424,46.2337684],[9.2209646,46.2291036],[9.2188966,46.2144312],[9.2022006,46.2084086],[9.1946469,46.1792001],[9.1834124,46.1701951],[9.1612215,46.170723],[9.1344847,46.1533104],[9.1214985,46.1348062],[9.072505,46.1181016],[9.0896151,46.0870156],[9.0783019,46.065317],[9.0226712,46.0526938],[9.0095249,46.0372876],[9.0284607,45.9936259],[8.9952919,45.9804895],[8.9889923,45.9703426],[9.0139638,45.9605478],[9.0193572,45.9283683],[9.0598997,45.920939],[9.0678084,45.9106341],[9.0765758,45.9114166],[9.0769314,45.8992992],[9.0890001,45.9006535],[9.0663865,45.87539],[9.0547875,45.8735517],[9.0518292,45.8544335],[9.0357691,45.8411404],[9.0315704,45.8208909],[8.9938727,45.8219619],[8.9974877,45.8349446],[8.9699837,45.8323538],[8.9562417,45.8433836],[8.9121469,45.830445],[8.914226,45.8422289],[8.9453015,45.8669788],[8.9337745,45.8703334],[8.9142865,45.9178005],[8.8933121,45.9311849],[8.8986014,45.9462586],[8.8936571,45.958982],[8.8682985,45.9606214],[8.8313229,45.988016],[8.7858834,45.9890766],[8.7930889,46.0081018],[8.8354657,46.0437923],[8.8284868,46.0465333],[8.8441845,46.0485053],[8.8545888,46.0615846],[8.8521097,46.0756365],[8.8060394,46.1012763],[8.783034,46.0941725],[8.7600184,46.1015686],[8.7423432,46.1223113],[8.7264658,46.1119064],[8.7053396,46.0831933],[8.7284744,46.0302214],[8.7264298,46.0179672],[8.5706383,45.9000335],[8.5952008,45.833614],[8.5816471,45.8136582],[8.5582768,45.8035638],[8.5525526,45.7839382],[8.5945506,45.7297714],[8.6428681,45.7231552],[8.6534342,45.7139709],[8.6407993,45.6768083],[8.6812011,45.6764016],[8.6698345,45.6614235],[8.6881849,45.6369928],[8.6786452,45.633627],[8.6656575,45.6428786],[8.658939,45.6377463],[8.6630877,45.6220341],[8.682133,45.6203425],[8.703148,45.600057],[8.7044406,45.5883142],[8.6933449,45.5777808],[8.7055279,45.569154],[8.7077546,45.5475168],[8.7192217,45.5317128],[8.7143868,45.5178752],[8.7278924,45.5023994],[8.7603515,45.4968464],[8.7734935,45.4847038],[8.7874867,45.4862324],[8.7883745,45.4625086],[8.8100697,45.4459788],[8.8081023,45.4333347],[8.8258325,45.4339482],[8.8236794,45.4124371],[8.8373452,45.4064533],[8.8428962,45.393838],[8.8112284,45.3891079],[8.8015417,45.3791811],[8.7654315,45.3889398],[8.760886,45.3764839],[8.7192919,45.3783785],[8.7204421,45.3704602],[8.7455115,45.3543895],[8.760662,45.3556965],[8.7625376,45.3486194],[8.743747,45.3403021],[8.7421219,45.3320592],[8.7243138,45.3358101],[8.7161212,45.3028811],[8.6902131,45.2923452],[8.6652765,45.2916717],[8.656117,45.3266598],[8.6320579,45.3370534],[8.6347267,45.3487592],[8.6218682,45.3569806],[8.5788124,45.3472345],[8.5572048,45.3533007],[8.553757,45.3615234],[8.5510708,45.3524576],[8.5266497,45.3431597],[8.5376738,45.3167094],[8.5135427,45.3132784],[8.4978518,45.2917672]],[[9.2900862,44.7000413],[9.2922755,44.7058602],[9.30242,44.7031331],[9.2900862,44.7000413]],[[9.2973091,44.6926183],[9.3043611,44.6968893],[9.3054526,44.6962382],[9.3028578,44.6923966],[9.2973091,44.6926183]]],[[[8.7047219,45.0240794],[8.7061228,45.012905],[8.7056844,45.0245432],[8.7047219,45.0240794]]],[[[8.8163961,45.0222925],[8.8142701,45.0173944],[8.8166923,45.0219443],[8.8163961,45.0222925]]],[[[8.9585437,45.9648164],[8.9756323,45.9616322],[8.9774204,45.982877],[8.9670775,45.9841493],[8.9585437,45.9648164]]]]}}
