{"type":"Feature","properties":{"source":"piemonte-dtm","attribution":"outline \u00a9 OpenStreetMap contributors, ODbL 1.0, by Nominatim"},"geometry":{"type":"Polygon","coordinates":[[[6.6272658,45.1068023],[6.6469378,45.0849077],[6.6456491,45.0753393],[6.6632386,45.0721211],[6.6586765,45.052538],[6.6698693,45.0442126],[6.6639408,45.0339891],[6.673405,45.0197642],[6.7482652,45.0161652],[6.7513094,44.9975574],[6.737894,44.9893386],[6.762411,44.972689],[6.765327,44.962125],[6.743808,44.936763],[6.7607666,44.9335526],[6.748482,44.922126],[6.751206,44.906146],[6.7709835,44.9037024],[6.7848729,44.8882727],[6.8017233,44.8910486],[6.8076445,44.8758288],[6.8635712,44.8504981],[6.9067999,44.8432822],[6.9314224,44.8644491],[6.9702329,44.8463157],[7.0012056,44.8421834],[7.0101202,44.8260139],[7.0250798,44.8231128],[6.9995704,44.7896954],[7.0215912,44.7713991],[7.0284446,44.7296844],[7.0657785,44.7136039],[7.0755967,44.6902404],[7.071624,44.6794759],[7.0289793,44.6913996],[6.9871062,44.6900821],[6.9629496,44.6782241],[6.9479283,44.6538596],[6.9679499,44.6195472],[6.9501986,44.6198938],[6.9503956,44.6102382],[6.937995,44.603741],[6.9328719,44.5730653],[6.9127741,44.569112],[6.9165645,44.5615339],[6.9038209,44.5554777],[6.8800101,44.5552997],[6.8698631,44.5371216],[6.8561479,44.5331856],[6.8615488,44.5004794],[6.8761784,44.4818313],[6.9061681,44.4676598],[6.9118855,44.4512072],[6.948077,44.429701],[6.8929423,44.4209721],[6.897117,44.3755563],[6.887345,44.3614236],[6.9218616,44.351657],[6.9266902,44.3329667],[6.9601549,44.3114482],[6.9576009,44.2952983],[6.9703713,44.29428],[6.9717059,44.2836513],[6.9960782,44.2800848],[6.9966714,44.2519073],[7.008514,44.2352417],[7.0382013,44.2237541],[7.0768043,44.2322092],[7.143103,44.2002315],[7.1627268,44.2080143],[7.1776474,44.1972452],[7.1883302,44.2007619],[7.1935892,44.1870854],[7.2188526,44.1686499],[7.2417696,44.1729774],[7.2488589,44.1580569],[7.28029,44.1409613],[7.3446281,44.1452067],[7.3583899,44.1160364],[7.3930182,44.1252784],[7.425866,44.1123171],[7.429774,44.130226],[7.459553,44.126541],[7.5069856,44.1443989],[7.5213052,44.1376188],[7.5341655,44.1479453],[7.5615945,44.1485896],[7.564199,44.1555109],[7.6198643,44.1495148],[7.6321395,44.1735617],[7.6460873,44.1785768],[7.6844841,44.1739613],[7.6718079,44.1590883],[7.6794005,44.1472256],[7.666426,44.130751],[7.7189825,44.0824476],[7.7147012,44.061293],[7.7275938,44.0598079],[7.735995,44.0761391],[7.7593136,44.0842899],[7.7328473,44.0835334],[7.7145875,44.1066532],[7.7272063,44.1272288],[7.763158,44.1410201],[7.8223398,44.1213554],[7.8664778,44.1184691],[7.8858221,44.1045405],[7.926022,44.1118241],[7.9422642,44.100484],[7.9697688,44.1154733],[8.0065731,44.1023649],[8.0142066,44.1096731],[8.0021759,44.1172327],[8.0118158,44.1212853],[7.9787766,44.1378049],[8.0150199,44.1560903],[8.0434724,44.1417155],[8.0690636,44.1437554],[8.0727095,44.1587563],[8.09728,44.1788561],[8.0912379,44.1893235],[8.0955723,44.1969378],[8.0649257,44.2172245],[8.0774105,44.2344978],[8.0640576,44.2534465],[8.0904969,44.2740302],[8.0742527,44.2886481],[8.0637928,44.2881591],[8.0585166,44.3011909],[8.0771382,44.3133896],[8.102701,44.3012442],[8.1167728,44.3291145],[8.1476518,44.3436198],[8.1405654,44.3710328],[8.1499306,44.3734589],[8.1476374,44.3844713],[8.1654863,44.3879401],[8.176746,44.4002648],[8.1864392,44.3951453],[8.2096453,44.4052651],[8.2078474,44.4140494],[8.2208937,44.4273621],[8.1963165,44.4785158],[8.2105194,44.4767209],[8.2233692,44.4851199],[8.2163812,44.4954106],[8.2231736,44.5132701],[8.2520797,44.528545],[8.2715689,44.5071944],[8.3510266,44.4851935],[8.3576845,44.4647194],[8.3815647,44.4741317],[8.3769593,44.4819488],[8.400841,44.4926119],[8.4037928,44.5097364],[8.4182915,44.5137658],[8.4274857,44.5028749],[8.44687,44.4980803],[8.4698175,44.5219947],[8.4805988,44.5094341],[8.5348001,44.5136007],[8.5496039,44.5032513],[8.5761396,44.506933],[8.5737565,44.5233248],[8.5866878,44.5241916],[8.587631,44.5332246],[8.6123671,44.5432951],[8.5978161,44.5565596],[8.6012114,44.5682388],[8.6145825,44.5683207],[8.6172151,44.5740012],[8.608625,44.5761417],[8.6209595,44.5770925],[8.6238614,44.5863807],[8.6814198,44.5748825],[8.6905475,44.5824787],[8.7140754,44.5814507],[8.7327668,44.5704319],[8.7383305,44.5513234],[8.7499472,44.5489457],[8.7569839,44.5366904],[8.7498077,44.5256647],[8.7675643,44.524964],[8.7703056,44.4894655],[8.7882632,44.488031],[8.7859414,44.4971635],[8.801017,44.5007651],[8.7990825,44.5301328],[8.8287653,44.5430695],[8.8222098,44.5502514],[8.8260524,44.5618616],[8.852698,44.5592748],[8.8686074,44.5662442],[8.8913371,44.5506307],[8.9175028,44.561055],[8.9217734,44.56799],[8.902027,44.6091291],[8.910014,44.612048],[8.8826207,44.6387475],[8.9082612,44.6468236],[8.9217708,44.6723245],[8.9311995,44.6762146],[8.9595231,44.6760211],[8.9730706,44.6626115],[9.0146907,44.6660707],[9.0387618,44.6408673],[9.0439089,44.6144252],[9.0769893,44.6259624],[9.0859135,44.6142753],[9.1035453,44.6096064],[9.1023796,44.5928539],[9.1107041,44.581971],[9.1351922,44.5744771],[9.152555,44.5742212],[9.2051646,44.5994808],[9.1979117,44.6501459],[9.2064348,44.6602045],[9.1991961,44.6841097],[9.2084437,44.7029171],[9.2028303,44.7220571],[9.2135504,44.7523482],[9.1717256,44.7716835],[9.1746078,44.7971194],[9.1551195,44.8094085],[9.1609768,44.8147387],[9.1089923,44.8054378],[9.0951451,44.8190255],[9.0726397,44.8170886],[9.0729065,44.828035],[9.0490038,44.8498599],[9.0700667,44.8646843],[9.0556689,44.8885978],[9.0304559,44.8881179],[8.9996877,44.9093199],[9.0021622,44.9174037],[8.9886129,44.9250818],[8.9915899,44.9307533],[8.9695902,44.9434915],[8.9717206,44.9539211],[8.9802533,44.9519875],[8.97906,44.9670702],[8.9614408,44.9870048],[8.9425001,44.9810948],[8.9165442,44.9870842],[8.9012737,45.0077628],[8.8980668,45.0506581],[8.8859038,45.0501605],[8.8840039,45.0608707],[8.8656625,45.0517228],[8.8667424,45.0456929],[8.8430523,45.0507218],[8.8421222,45.0426301],[8.8270079,45.0403195],[8.8230888,45.047695],[8.8232097,45.036785],[8.8055896,45.0370804],[8.8134937,45.0301082],[8.7953638,45.0352802],[8.8027273,45.0273086],[8.7990788,45.021469],[8.7776986,45.0237339],[8.7717482,45.0067807],[8.7651441,45.0130551],[8.7481446,45.0094159],[8.7511023,45.0203394],[8.7251093,45.0220275],[8.7103267,45.0382471],[8.6929931,45.0198468],[8.6750795,45.0292492],[8.6590679,45.017975],[8.6522627,45.0349229],[8.6346571,45.0406741],[8.6469489,45.0546858],[8.636897,45.0665276],[8.6459876,45.0753328],[8.6090947,45.1068895],[8.6141632,45.1265462],[8.5917421,45.1313224],[8.5806611,45.1522684],[8.5543778,45.1573594],[8.5569272,45.1667378],[8.5429346,45.172842],[8.5535608,45.1909502],[8.5811897,45.2022262],[8.5777938,45.2079157],[8.5560255,45.2048559],[8.5464784,45.1948627],[8.5245149,45.1983337],[8.5480486,45.2041248],[8.5232449,45.2216039],[8.5436511,45.2340013],[8.5290974,45.2395141],[8.5561804,45.2413959],[8.5251773,45.2469061],[8.5227683,45.2546261],[8.5360139,45.2475875],[8.5436197,45.2539822],[8.5330483,45.2581432],[8.5351059,45.2778017],[8.5140772,45.2743206],[8.5168155,45.2912932],[8.4978518,45.2917672],[8.5135427,45.3132784],[8.5376738,45.3167094],[8.5264506,45.3425468],[8.5510708,45.3524576],[8.551754,45.3613176],[8.5788124,45.3472345],[8.6218682,45.3569806],[8.6347267,45.3487592],[8.6320579,45.3370534],[8.656117,45.3266598],[8.6652765,45.2916717],[8.6902131,45.2923452],[8.7161212,45.3028811],[8.7243138,45.3358101],[8.7421219,45.3320592],[8.743747,45.3403021],[8.7625376,45.3486194],[8.760662,45.3556965],[8.7455115,45.3543895],[8.7204421,45.3704602],[8.7192919,45.3783785],[8.760886,45.3764839],[8.7654315,45.3889398],[8.8015417,45.3791811],[8.8112284,45.3891079],[8.8428962,45.393838],[8.8373452,45.4064533],[8.8236794,45.4124371],[8.8258325,45.4339482],[8.8081023,45.4333347],[8.8100697,45.4459788],[8.7883745,45.4625086],[8.7874867,45.4862324],[8.7734935,45.4847038],[8.7603515,45.4968464],[8.7278924,45.5023994],[8.7143868,45.5178752],[8.7192217,45.5317128],[8.7077546,45.5475168],[8.7055279,45.569154],[8.6933449,45.5777808],[8.7044406,45.5883142],[8.703148,45.600057],[8.682133,45.6203425],[8.6630877,45.6220341],[8.658939,45.6377463],[8.6656575,45.6428786],[8.6786452,45.633627],[8.6881849,45.6369928],[8.6698345,45.6614235],[8.6812011,45.6764016],[8.6407993,45.6768083],[8.6534342,45.7139709],[8.6428681,45.7231552],[8.5945506,45.7297714],[8.5532887,45.7803139],[8.5582768,45.8035638],[8.5816471,45.8136582],[8.5952008,45.833614],[8.5706383,45.9000335],[8.7208017,46.0122924],[8.7287635,46.0292321],[8.7054756,46.0819336],[8.7139915,46.0972317],[8.657707,46.1126896],[8.6475778,46.1234895],[8.6118358,46.1216589],[8.6097051,46.1328793],[8.5927264,46.1428609],[8.6031756,46.1553321],[8.5736435,46.1643105],[8.5636969,46.1839451],[8.5404751,46.1978128],[8.5324431,46.2182823],[8.4702399,46.2323225],[8.4641062,46.2445507],[8.443381,46.2502416],[8.4558804,46.2637553],[8.4277394,46.2983007],[8.4653568,46.3337624],[8.4615616,46.3532565],[8.4702346,46.3625515],[8.4608374,46.3866763],[8.4711718,46.395923],[8.4568698,46.4231794],[8.4659449,46.4443655],[8.4460994,46.4636599],[8.3669353,46.4519219],[8.3254408,46.4257141],[8.3074915,46.4258511],[8.2889339,46.4081097],[8.3157324,46.3989657],[8.3128995,46.3770662],[8.2842822,46.3636306],[8.2637724,46.3640231],[8.2628834,46.3459664],[8.2239954,46.3344482],[8.2120118,46.3092769],[8.1987503,46.3022505],[8.1614213,46.2958838],[8.1375635,46.3017668],[8.0859279,46.2666177],[8.0826139,46.256538],[8.1101547,46.2495047],[8.1153277,46.2360032],[8.1388777,46.2261481],[8.1532947,46.1911033],[8.1655097,46.1822274],[8.1498785,46.1625029],[8.1553445,46.1476309],[8.1443893,46.1368231],[8.1154154,46.1303459],[8.1082331,46.1116286],[8.0347631,46.1008364],[8.0216618,46.0693659],[8.0354146,46.0440449],[8.0123703,46.0317209],[8.0175008,46.0247044],[8.0124128,46.01197],[8.0010841,46.0122112],[7.9890881,45.9959316],[7.9088881,45.9969892],[7.893849,45.9786349],[7.877425,45.9738599],[7.881811,45.9640084],[7.8684081,45.9367135],[7.8770518,45.9271951],[7.8613734,45.9104094],[7.8678429,45.9054874],[7.8688161,45.8677219],[7.8759229,45.8615817],[7.8635565,45.8413969],[7.8740544,45.8271265],[7.8615209,45.8197974],[7.8618882,45.7917769],[7.8921925,45.7545161],[7.9312185,45.7416193],[7.9270585,45.7347671],[7.9375525,45.7245298],[7.9047634,45.6856735],[7.9383713,45.6391234],[7.915039,45.6327386],[7.8965774,45.6117876],[7.9007656,45.5917199],[7.8791745,45.60016],[7.8277826,45.5970699],[7.7326993,45.5503309],[7.7164694,45.5591988],[7.6754996,45.5523447],[7.6340451,45.5707871],[7.6090659,45.5628768],[7.5996945,45.5780925],[7.5664735,45.5916229],[7.5317706,45.5767894],[7.4893174,45.5831081],[7.4650016,45.5774283],[7.4478877,45.5554325],[7.4167689,45.5464993],[7.4165114,45.5374227],[7.3772392,45.516898],[7.3593015,45.5258678],[7.3211041,45.5140342],[7.2694973,45.514677],[7.2637298,45.4990266],[7.2475534,45.4940719],[7.2226604,45.4704761],[7.1603299,45.4865882],[7.1435822,45.4778314],[7.136936,45.4917896],[7.1444017,45.5084373],[7.1343013,45.5154556],[7.1214333,45.5066665],[7.1145059,45.4752013],[7.1002152,45.4645047],[7.1002025,45.4543678],[7.114587,45.4330789],[7.1859342,45.4042025],[7.1780943,45.3892143],[7.1627232,45.3815043],[7.1577221,45.36917],[7.1638941,45.3607061],[7.1336813,45.3472144],[7.1347,45.331186],[7.109395,45.3277094],[7.1218296,45.2951331],[7.1359192,45.2802513],[7.1292988,45.2712562],[7.1374816,45.2563719],[7.1252013,45.2440083],[7.1104239,45.2465912],[7.0719993,45.2098732],[7.047217,45.2257281],[7.026311,45.2153745],[7.0034728,45.2198178],[6.9930951,45.2099175],[6.9657708,45.2078758],[6.9606471,45.2029182],[6.967287,45.195888],[6.95387,45.1907985],[6.9554895,45.1803442],[6.9429575,45.1761522],[6.9472475,45.1704258],[6.8915976,45.1670208],[6.8841425,45.156767],[6.8978334,45.1427494],[6.8943972,45.1373568],[6.8477966,45.1273253],[6.8472416,45.1355412],[6.7682444,45.159765],[6.7401496,45.136671],[6.7114175,45.1448441],[6.6804211,45.1402969],[6.6726052,45.1244462],[6.6342862,45.1152153],[6.6272658,45.1068023]],[[8.7061228,45.012905],[8.7047219,45.0240794],[8.7056844,45.0245432],[8.7061228,45.012905]],[[8.8142701,45.0173944],[8.8163961,45.0222925],[8.8166923,45.0219443],[8.8142701,45.0173944]]]}}
